[{"OBJECT_NAME":"STARLINK-32653","OBJECT_ID":"2024-229H","EPOCH":"2026-03-09T20:12:47.437344","MEAN_MOTION":15.27565953,"ECCENTRICITY":0.00010941,"INCLINATION":42.9969,"RA_OF_ASC_NODE":262.9749,"ARG_OF_PERICENTER":273.8257,"MEAN_ANOMALY":86.2469,"EPHEMERIS_TYPE":0,"CLASSIFICATION_TYPE":"U","NORAD_CAT_ID":62199,"ELEMENT_SET_NO":999,"REV_AT_EPOCH":7066,"BSTAR":0.00085986176,"MEAN_MOTION_DOT":0.00023465,"MEAN_MOTION_DDOT":0},{"OBJECT_NAME":"OBJECT G","OBJECT_ID":"2025-155G","EPOCH":"2026-03-09T22:09:56.639808","MEAN_MOTION":15.27590702,"ECCENTRICITY":0.00081871,"INCLINATION":97.4488,"RA_OF_ASC_NODE":37.3259,"ARG_OF_PERICENTER":154.1528,"MEAN_ANOMALY":206.0122,"EPHEMERIS_TYPE":0,"CLASSIFICATION_TYPE":"U","NORAD_CAT_ID":64882,"ELEMENT_SET_NO":999,"REV_AT_EPOCH":6559,"BSTAR":0.0004792617,"MEAN_MOTION_DOT":0.00012876,"MEAN_MOTION_DDOT":0}]
